{"type": "FeatureCollection", "features": [ {"type": "Feature", "properties": {"norad_id": 66436, "name": "STARLINK-35501", "group": "last-30-days", "lat": 32.3828704769111, "lon": 138.62659047513253, "alt_km": 411.0183957390982, "timestamp": "2025-12-04T10:51:48.875431+00:00", "meta": {"OBJECT_NAME": "STARLINK-35501", "OBJECT_ID": "2025-259Q", "EPOCH": "2025-12-04T04:00:03.000096", "MEAN_MOTION": 15.50632329, "ECCENTRICITY": 0.0001702, "INCLINATION": 43.0005, "RA_OF_ASC_NODE": 97.4113, "ARG_OF_PERICENTER": 253.9773, "MEAN_ANOMALY": 359.7302, "EPHEMERIS_TYPE": 0, "CLASSIFICATION_TYPE": "U", "NORAD_CAT_ID": 66436, "ELEMENT_SET_NO": 999, "REV_AT_EPOCH": 490, "BSTAR": -0.0024121, "MEAN_MOTION_DOT": -0.00139623, "MEAN_MOTION_DDOT": 0}, "tle": {"line1": "1 66436U 25259Q   25338.16670139 -.00139623  00000+0 -24121-2 0  9999", "line2": "2 66436  43.0005  97.4113 0001702 253.9773 359.7302 15.50632329  4908"}}, "geometry": {"type": "Point", "coordinates": [138.62659047513253, 32.3828704769111]}}, {"type": "Feature", "properties": {"norad_id": 66437, "name": "STARLINK-35474", "group": "last-30-days", "lat": 33.324447242535186, "lon": 140.60868689856093, "alt_km": 410.7282073418346, "timestamp": "2025-12-04T10:51:48.875441+00:00", "meta": {"OBJECT_NAME": "STARLINK-35474", "OBJECT_ID": "2025-259R", "EPOCH": "2025-12-04T04:00:03.000096", "MEAN_MOTION": 15.50624508, "ECCENTRICITY": 0.0001464, "INCLINATION": 43.0005, "RA_OF_ASC_NODE": 97.4067, "ARG_OF_PERICENTER": 256.0804, "MEAN_ANOMALY": 359.5481, "EPHEMERIS_TYPE": 0, "CLASSIFICATION_TYPE": "U", "NORAD_CAT_ID": 66437, "ELEMENT_SET_NO": 999, "REV_AT_EPOCH": 490, "BSTAR": -0.0022929, "MEAN_MOTION_DOT": -0.00132815, "MEAN_MOTION_DDOT": 0}, "tle": {"line1": "1 66437U 25259R   25338.16670139 -.00132815  00000+0 -22929-2 0  9990", "line2": "2 66437  43.0005  97.4067 0001464 256.0804 359.5481 15.50624508  4907"}}, "geometry": {"type": "Point", "coordinates": [140.60868689856093, 33.324447242535186]}}, {"type": "Feature", "properties": {"norad_id": 66438, "name": "STARLINK-34681", "group": "last-30-days", "lat": 34.23097610123878, "lon": 142.6272050664156, "alt_km": 410.5738395500566, "timestamp": "2025-12-04T10:51:48.875451+00:00", "meta": {"OBJECT_NAME": "STARLINK-34681", "OBJECT_ID": "2025-259S", "EPOCH": "2025-12-04T04:00:03.000096", "MEAN_MOTION": 15.50616613, "ECCENTRICITY": 0.0001499, "INCLINATION": 43.0006, "RA_OF_ASC_NODE": 97.4024, "ARG_OF_PERICENTER": 261.856, "MEAN_ANOMALY": 355.6834, "EPHEMERIS_TYPE": 0, "CLASSIFICATION_TYPE": "U", "NORAD_CAT_ID": 66438, "ELEMENT_SET_NO": 999, "REV_AT_EPOCH": 479, "BSTAR": -0.0020677, "MEAN_MOTION_DOT": -0.00119966, "MEAN_MOTION_DDOT": 0}, "tle": {"line1": "1 66438U 25259S   25338.16670139 -.00119966  00000+0 -20677-2 0  9991", "line2": "2 66438  43.0006  97.4024 0001499 261.8560 355.6834 15.50616613  4797"}}, "geometry": {"type": "Point", "coordinates": [142.6272050664156, 34.23097610123878]}}, {"type": "Feature", "properties": {"norad_id": 66439, "name": "STARLINK-35327", "group": "last-30-days", "lat": 31.41143295198457, "lon": 136.68970197299276, "alt_km": 410.9612926354339, "timestamp": "2025-12-04T10:51:48.875463+00:00", "meta": {"OBJECT_NAME": "STARLINK-35327", "OBJECT_ID": "2025-259T", "EPOCH": "2025-12-04T04:00:03.000096", "MEAN_MOTION": 15.50636154, "ECCENTRICITY": 0.0001497, "INCLINATION": 43.0005, "RA_OF_ASC_NODE": 97.4182, "ARG_OF_PERICENTER": 262.9247, "MEAN_ANOMALY": 348.8677, "EPHEMERIS_TYPE": 0, "CLASSIFICATION_TYPE": "U", "NORAD_CAT_ID": 66439, "ELEMENT_SET_NO": 999, "REV_AT_EPOCH": 490, "BSTAR": -0.0026148, "MEAN_MOTION_DOT": -0.00151123, "MEAN_MOTION_DDOT": 0}, "tle": {"line1": "1 66439U 25259T   25338.16670139 -.00151123  00000+0 -26148-2 0  9992", "line2": "2 66439  43.0005  97.4182 0001497 262.9247 348.8677 15.50636154  4908"}}, "geometry": {"type": "Point", "coordinates": [136.68970197299276, 31.41143295198457]}}, {"type": "Feature", "properties": {"norad_id": 66440, "name": "STARLINK-35405", "group": "last-30-days", "lat": 35.11637985762833, "lon": 144.72048265290783, "alt_km": 410.47574925419576, "timestamp": "2025-12-04T10:51:48.875475+00:00", "meta": {"OBJECT_NAME": "STARLINK-35405", "OBJECT_ID": "2025-259U", "EPOCH": "2025-12-04T04:00:03.000096", "MEAN_MOTION": 15.50644721, "ECCENTRICITY": 0.0001534, "INCLINATION": 43.0005, "RA_OF_ASC_NODE": 97.398, "ARG_OF_PERICENTER": 260.2968, "MEAN_ANOMALY": 359.1641, "EPHEMERIS_TYPE": 0, "CLASSIFICATION_TYPE": "U", "NORAD_CAT_ID": 66440, "ELEMENT_SET_NO": 999, "REV_AT_EPOCH": 490, "BSTAR": -0.0028241, "MEAN_MOTION_DOT": -0.00162999, "MEAN_MOTION_DDOT": 0}, "tle": {"line1": "1 66440U 25259U   25338.16670139 -.00162999  00000+0 -28241-2 0  9993", "line2": "2 66440  43.0005  97.3980 0001534 260.2968 359.1641 15.50644721  4903"}}, "geometry": {"type": "Point", "coordinates": [144.72048265290783, 35.11637985762833]}}, {"type": "Feature", "properties": {"norad_id": 66441, "name": "STARLINK-35426", "group": "last-30-days", "lat": 35.953426555818595, "lon": 146.82760918335828, "alt_km": 410.4097380890662, "timestamp": "2025-12-04T10:51:48.875486+00:00", "meta": {"OBJECT_NAME": "STARLINK-35426", "OBJECT_ID": "2025-259V", "EPOCH": "2025-12-04T04:00:03.000096", "MEAN_MOTION": 15.50629149, "ECCENTRICITY": 0.0001589, "INCLINATION": 43.0006, "RA_OF_ASC_NODE": 97.3926, "ARG_OF_PERICENTER": 258.5492, "MEAN_ANOMALY": 2.8316, "EPHEMERIS_TYPE": 0, "CLASSIFICATION_TYPE": "U", "NORAD_CAT_ID": 66441, "ELEMENT_SET_NO": 999, "REV_AT_EPOCH": 490, "BSTAR": -0.0024402, "MEAN_MOTION_DOT": -0.00141198, "MEAN_MOTION_DDOT": 0}, "tle": {"line1": "1 66441U 25259V   25338.16670139 -.00141198  00000+0 -24402-2 0  9997", "line2": "2 66441  43.0006  97.3926 0001589 258.5492   2.8316 15.50629149  4905"}}, "geometry": {"type": "Point", "coordinates": [146.82760918335828, 35.953426555818595]}}, {"type": "Feature", "properties": {"norad_id": 66442, "name": "STARLINK-34724", "group": "last-30-days", "lat": 36.75717760885528, "lon": 148.9930003642569, "alt_km": 410.16547230450124, "timestamp": "2025-12-04T10:51:48.875496+00:00", "meta": {"OBJECT_NAME": "STARLINK-34724", "OBJECT_ID": "2025-259W", "EPOCH": "2025-12-04T04:00:03.000096", "MEAN_MOTION": 15.50647806, "ECCENTRICITY": 0.0001504, "INCLINATION": 43.0005, "RA_OF_ASC_NODE": 97.3882, "ARG_OF_PERICENTER": 267.6145, "MEAN_ANOMALY": 355.6742, "EPHEMERIS_TYPE": 0, "CLASSIFICATION_TYPE": "U", "NORAD_CAT_ID": 66442, "ELEMENT_SET_NO": 999, "REV_AT_EPOCH": 490, "BSTAR": -0.0028937, "MEAN_MOTION_DOT": -0.00166943, "MEAN_MOTION_DDOT": 0}, "tle": {"line1": "1 66442U 25259W   25338.16670139 -.00166943  00000+0 -28937-2 0  9990", "line2": "2 66442  43.0005  97.3882 0001504 267.6145 355.6742 15.50647806  4901"}}, "geometry": {"type": "Point", "coordinates": [148.9930003642569, 36.75717760885528]}}, {"type": "Feature", "properties": {"norad_id": 66443, "name": "STARLINK-35219", "group": "last-30-days", "lat": 37.51959484464422, "lon": 151.19934458780514, "alt_km": 410.03513497128915, "timestamp": "2025-12-04T10:51:48.875506+00:00", "meta": {"OBJECT_NAME": "STARLINK-35219", "OBJECT_ID": "2025-259X", "EPOCH": "2025-12-04T04:00:03.000096", "MEAN_MOTION": 15.50657087, "ECCENTRICITY": 0.000141, "INCLINATION": 43.0005, "RA_OF_ASC_NODE": 97.3836, "ARG_OF_PERICENTER": 262.6543, "MEAN_ANOMALY": 2.5493, "EPHEMERIS_TYPE": 0, "CLASSIFICATION_TYPE": "U", "NORAD_CAT_ID": 66443, "ELEMENT_SET_NO": 999, "REV_AT_EPOCH": 479, "BSTAR": -0.0031438, "MEAN_MOTION_DOT": -0.00181079, "MEAN_MOTION_DDOT": 0}, "tle": {"line1": "1 66443U 25259X   25338.16670139 -.00181079  00000+0 -31438-2 0  9998", "line2": "2 66443  43.0005  97.3836 0001410 262.6543   2.5493 15.50657087  4794"}}, "geometry": {"type": "Point", "coordinates": [151.19934458780514, 37.51959484464422]}}, {"type": "Feature", "properties": {"norad_id": 66444, "name": "STARLINK-35360", "group": "last-30-days", "lat": 39.54594092606782, "lon": 158.07690831916244, "alt_km": 409.7914919930827, "timestamp": "2025-12-04T10:51:48.875516+00:00", "meta": {"OBJECT_NAME": "STARLINK-35360", "OBJECT_ID": "2025-259Y", "EPOCH": "2025-12-04T04:00:03.000096", "MEAN_MOTION": 15.50652306, "ECCENTRICITY": 0.000149, "INCLINATION": 43.0005, "RA_OF_ASC_NODE": 97.3682, "ARG_OF_PERICENTER": 263.966, "MEAN_ANOMALY": 6.9916, "EPHEMERIS_TYPE": 0, "CLASSIFICATION_TYPE": "U", "NORAD_CAT_ID": 66444, "ELEMENT_SET_NO": 999, "REV_AT_EPOCH": 490, "BSTAR": -0.0029894, "MEAN_MOTION_DOT": -0.00172363, "MEAN_MOTION_DDOT": 0}, "tle": {"line1": "1 66444U 25259Y   25338.16670139 -.00172363  00000+0 -29894-2 0  9998", "line2": "2 66444  43.0005  97.3682 0001490 263.9660   6.9916 15.50652306  4906"}}, "geometry": {"type": "Point", "coordinates": [158.07690831916244, 39.54594092606782]}}, {"type": "Feature", "properties": {"norad_id": 66445, "name": "STARLINK-34698", "group": "last-30-days", "lat": 38.236547044964446, "lon": 153.438668345831, "alt_km": 410.0618128735796, "timestamp": "2025-12-04T10:51:48.875527+00:00", "meta": {"OBJECT_NAME": "STARLINK-34698", "OBJECT_ID": "2025-259Z", "EPOCH": "2025-12-04T04:00:03.000096", "MEAN_MOTION": 15.50638565, "ECCENTRICITY": 0.000159, "INCLINATION": 43.0004, "RA_OF_ASC_NODE": 97.3784, "ARG_OF_PERICENTER": 260.6761, "MEAN_ANOMALY": 6.4467, "EPHEMERIS_TYPE": 0, "CLASSIFICATION_TYPE": "U", "NORAD_CAT_ID": 66445, "ELEMENT_SET_NO": 999, "REV_AT_EPOCH": 479, "BSTAR": -0.0026207, "MEAN_MOTION_DOT": -0.00151474, "MEAN_MOTION_DDOT": 0}, "tle": {"line1": "1 66445U 25259Z   25338.16670139 -.00151474  00000+0 -26207-2 0  9994", "line2": "2 66445  43.0004  97.3784 0001590 260.6761   6.4467 15.50638565  4790"}}, "geometry": {"type": "Point", "coordinates": [153.438668345831, 38.236547044964446]}}]}